ONEWEB-0035             
1 45143U 20008N   26040.10838848  .00000319  00000+0  87780-3 0  9994
2 45143  87.8755  61.8017 0001855  96.1790 263.9549 13.10375319291163
ONEWEB-0036             
1 45144U 20008P   26040.09841480 -.00000243  00000+0 -73316-3 0  9997
2 45144  87.8765  61.7672 0001938  82.0976 278.0371 13.10376034291595
ONEWEB-0038             
1 45145U 20008Q   26040.06660606  .00000259  00000+0  69450-3 0  9993
2 45145  87.8828  46.5542 0000276 150.0507 210.0637 13.11418055293531
ONEWEB-0039             
1 45146U 20008R   26040.08098163 -.00000364  00000+0 -10786-2 0  9995
2 45146  87.8759  61.7881 0001674  76.2571 283.8743 13.10372051291384
ONEWEB-0040             
1 45147U 20008S   26040.15070035 -.00000452  00000+0 -13320-2 0  9997
2 45147  87.8746  61.7938 0001753  94.2703 265.8624 13.10371087291093
ONEWEB-0043             
1 45149U 20008U   26040.07600110 -.00000502  00000+0 -14752-2 0  9999
2 45149  87.8749  61.7908 0001796  72.8062 287.3262 13.10372058291403
ONEWEB-0044             
1 45150U 20008V   26040.10422444  .00000108  00000+0  27433-3 0  9998
2 45150  87.8764  61.7795 0001712  87.8601 272.2722 13.10379323291708
ONEWEB-0045             
1 45151U 20008W   26040.06138061  .00000161  00000+0  41812-3 0  9999
2 45151  87.8830  46.5416 0001761  87.0141 273.1188 13.11420187293613
ONEWEB-0047             
1 45152U 20008X   26040.09759156 -.00000240  00000+0 -72435-3 0  9992
2 45152  87.8754  61.7857 0001817  92.6057 267.5278 13.10376255291426
ONEWEB-0048             
1 45153U 20008Y   26040.09259787 -.00000605  00000+0 -17704-2 0  9990
2 45153  87.8752  61.8146 0001829  95.1074 265.0262 13.10375033291033
ONEWEB-0049             
1 45154U 20008Z   26040.09579274 -.00000265  00000+0 -79562-3 0  9990
2 45154  87.8751  61.8024 0002242  85.7971 274.3412 13.10376043291255
ONEWEB-0051             
1 45155U 20008AA  26040.05968175 -.00000030  00000+0 -12060-3 0  9999
2 45155  87.8827  46.5562 0001822  89.6722 270.4615 13.11418822294299
ONEWEB-0052             
1 45156U 20008AB  26040.09011668 -.00000513  00000+0 -15064-2 0  9992
2 45156  87.8762  61.7699 0002261  83.2396 276.8989 13.10374054291167
ONEWEB-0053             
1 45157U 20008AC  26040.14903791 -.00000369  00000+0 -10941-2 0  9994
2 45157  87.8749  61.7991 0001966  76.7690 283.3656 13.10369702291149
ONEWEB-0054             
1 45158U 20008AD  26040.10754958  .00000291  00000+0  79761-3 0  9998
2 45158  87.8762  61.7812 0001955  92.5260 267.6091 13.10375648291250
ONEWEB-0056             
1 45159U 20008AE  26040.08845337 -.00000507  00000+0 -14899-2 0  9990
2 45159  87.8759  61.7851 0002065  91.8479 268.2885 13.10373963291400
