[{"OBJECT_NAME":"ONEWEB-0035","OBJECT_ID":"2020-008N","EPOCH":"2026-02-09T02:36:04.764672","MEAN_MOTION":13.10375319,"ECCENTRICITY":0.00018556,"INCLINATION":87.8755,"RA_OF_ASC_NODE":61.8017,"ARG_OF_PERICENTER":96.179,"MEAN_ANOMALY":263.9549,"EPHEMERIS_TYPE":0,"CLASSIFICATION_TYPE":"U","NORAD_CAT_ID":45143,"ELEMENT_SET_NO":999,"REV_AT_EPOCH":29116,"BSTAR":0.00087779948,"MEAN_MOTION_DOT":3.19e-6,"MEAN_MOTION_DDOT":0},{"OBJECT_NAME":"ONEWEB-0036","OBJECT_ID":"2020-008P","EPOCH":"2026-02-09T02:21:43.038720","MEAN_MOTION":13.10376034,"ECCENTRICITY":0.00019385,"INCLINATION":87.8765,"RA_OF_ASC_NODE":61.7672,"ARG_OF_PERICENTER":82.0976,"MEAN_ANOMALY":278.0371,"EPHEMERIS_TYPE":0,"CLASSIFICATION_TYPE":"U","NORAD_CAT_ID":45144,"ELEMENT_SET_NO":999,"REV_AT_EPOCH":29159,"BSTAR":-0.00073315922,"MEAN_MOTION_DOT":-2.43e-6,"MEAN_MOTION_DDOT":0},{"OBJECT_NAME":"ONEWEB-0038","OBJECT_ID":"2020-008Q","EPOCH":"2026-02-09T01:35:54.763584","MEAN_MOTION":13.11418055,"ECCENTRICITY":2.766e-5,"INCLINATION":87.8828,"RA_OF_ASC_NODE":46.5542,"ARG_OF_PERICENTER":150.0507,"MEAN_ANOMALY":210.0637,"EPHEMERIS_TYPE":0,"CLASSIFICATION_TYPE":"U","NORAD_CAT_ID":45145,"ELEMENT_SET_NO":999,"REV_AT_EPOCH":29353,"BSTAR":0.00069450112,"MEAN_MOTION_DOT":2.59e-6,"MEAN_MOTION_DDOT":0},{"OBJECT_NAME":"ONEWEB-0039","OBJECT_ID":"2020-008R","EPOCH":"2026-02-09T01:56:36.812832","MEAN_MOTION":13.10372051,"ECCENTRICITY":0.00016743,"INCLINATION":87.8759,"RA_OF_ASC_NODE":61.7881,"ARG_OF_PERICENTER":76.2571,"MEAN_ANOMALY":283.8743,"EPHEMERIS_TYPE":0,"CLASSIFICATION_TYPE":"U","NORAD_CAT_ID":45146,"ELEMENT_SET_NO":999,"REV_AT_EPOCH":29138,"BSTAR":-0.0010785806,"MEAN_MOTION_DOT":-3.64e-6,"MEAN_MOTION_DDOT":0},{"OBJECT_NAME":"ONEWEB-0040","OBJECT_ID":"2020-008S","EPOCH":"2026-02-09T03:37:00.510240","MEAN_MOTION":13.10371087,"ECCENTRICITY":0.00017531,"INCLINATION":87.8746,"RA_OF_ASC_NODE":61.7938,"ARG_OF_PERICENTER":94.2703,"MEAN_ANOMALY":265.8624,"EPHEMERIS_TYPE":0,"CLASSIFICATION_TYPE":"U","NORAD_CAT_ID":45147,"ELEMENT_SET_NO":999,"REV_AT_EPOCH":29109,"BSTAR":-0.0013319694,"MEAN_MOTION_DOT":-4.52e-6,"MEAN_MOTION_DDOT":0},{"OBJECT_NAME":"ONEWEB-0043","OBJECT_ID":"2020-008U","EPOCH":"2026-02-09T01:49:26.495040","MEAN_MOTION":13.10372058,"ECCENTRICITY":0.00017966,"INCLINATION":87.8749,"RA_OF_ASC_NODE":61.7908,"ARG_OF_PERICENTER":72.8062,"MEAN_ANOMALY":287.3262,"EPHEMERIS_TYPE":0,"CLASSIFICATION_TYPE":"U","NORAD_CAT_ID":45149,"ELEMENT_SET_NO":999,"REV_AT_EPOCH":29140,"BSTAR":-0.0014751662,"MEAN_MOTION_DOT":-5.02e-6,"MEAN_MOTION_DDOT":0},{"OBJECT_NAME":"ONEWEB-0044","OBJECT_ID":"2020-008V","EPOCH":"2026-02-09T02:30:04.991616","MEAN_MOTION":13.10379323,"ECCENTRICITY":0.00017121,"INCLINATION":87.8764,"RA_OF_ASC_NODE":61.7795,"ARG_OF_PERICENTER":87.8601,"MEAN_ANOMALY":272.2722,"EPHEMERIS_TYPE":0,"CLASSIFICATION_TYPE":"U","NORAD_CAT_ID":45150,"ELEMENT_SET_NO":999,"REV_AT_EPOCH":29170,"BSTAR":0.00027433092,"MEAN_MOTION_DOT":1.08e-6,"MEAN_MOTION_DDOT":0},{"OBJECT_NAME":"ONEWEB-0045","OBJECT_ID":"2020-008W","EPOCH":"2026-02-09T01:28:23.284704","MEAN_MOTION":13.11420187,"ECCENTRICITY":0.00017615,"INCLINATION":87.883,"RA_OF_ASC_NODE":46.5416,"ARG_OF_PERICENTER":87.0141,"MEAN_ANOMALY":273.1188,"EPHEMERIS_TYPE":0,"CLASSIFICATION_TYPE":"U","NORAD_CAT_ID":45151,"ELEMENT_SET_NO":999,"REV_AT_EPOCH":29361,"BSTAR":0.0004181221,"MEAN_MOTION_DOT":1.61e-6,"MEAN_MOTION_DDOT":0},{"OBJECT_NAME":"ONEWEB-0047","OBJECT_ID":"2020-008X","EPOCH":"2026-02-09T02:20:31.910784","MEAN_MOTION":13.10376255,"ECCENTRICITY":0.00018174,"INCLINATION":87.8754,"RA_OF_ASC_NODE":61.7857,"ARG_OF_PERICENTER":92.6057,"MEAN_ANOMALY":267.5278,"EPHEMERIS_TYPE":0,"CLASSIFICATION_TYPE":"U","NORAD_CAT_ID":45152,"ELEMENT_SET_NO":999,"REV_AT_EPOCH":29142,"BSTAR":-0.00072435442,"MEAN_MOTION_DOT":-2.4e-6,"MEAN_MOTION_DDOT":0},{"OBJECT_NAME":"ONEWEB-0048","OBJECT_ID":"2020-008Y","EPOCH":"2026-02-09T02:13:20.455968","MEAN_MOTION":13.10375033,"ECCENTRICITY":0.0001829,"INCLINATION":87.8752,"RA_OF_ASC_NODE":61.8146,"ARG_OF_PERICENTER":95.1074,"MEAN_ANOMALY":265.0262,"EPHEMERIS_TYPE":0,"CLASSIFICATION_TYPE":"U","NORAD_CAT_ID":45153,"ELEMENT_SET_NO":999,"REV_AT_EPOCH":29103,"BSTAR":-0.0017703568,"MEAN_MOTION_DOT":-6.05e-6,"MEAN_MOTION_DDOT":0},{"OBJECT_NAME":"ONEWEB-0049","OBJECT_ID":"2020-008Z","EPOCH":"2026-02-09T02:17:56.492736","MEAN_MOTION":13.10376043,"ECCENTRICITY":0.00022422,"INCLINATION":87.8751,"RA_OF_ASC_NODE":61.8024,"ARG_OF_PERICENTER":85.7971,"MEAN_ANOMALY":274.3412,"EPHEMERIS_TYPE":0,"CLASSIFICATION_TYPE":"U","NORAD_CAT_ID":45154,"ELEMENT_SET_NO":999,"REV_AT_EPOCH":29125,"BSTAR":-0.00079561944,"MEAN_MOTION_DOT":-2.65e-6,"MEAN_MOTION_DDOT":0},{"OBJECT_NAME":"ONEWEB-0051","OBJECT_ID":"2020-008AA","EPOCH":"2026-02-09T01:25:56.503200","MEAN_MOTION":13.11418822,"ECCENTRICITY":0.00018226,"INCLINATION":87.8827,"RA_OF_ASC_NODE":46.5562,"ARG_OF_PERICENTER":89.6722,"MEAN_ANOMALY":270.4615,"EPHEMERIS_TYPE":0,"CLASSIFICATION_TYPE":"U","NORAD_CAT_ID":45155,"ELEMENT_SET_NO":999,"REV_AT_EPOCH":29429,"BSTAR":-0.00012060411,"MEAN_MOTION_DOT":-3.0e-7,"MEAN_MOTION_DDOT":0},{"OBJECT_NAME":"ONEWEB-0052","OBJECT_ID":"2020-008AB","EPOCH":"2026-02-09T02:09:46.081152","MEAN_MOTION":13.10374054,"ECCENTRICITY":0.00022615,"INCLINATION":87.8762,"RA_OF_ASC_NODE":61.7699,"ARG_OF_PERICENTER":83.2396,"MEAN_ANOMALY":276.8989,"EPHEMERIS_TYPE":0,"CLASSIFICATION_TYPE":"U","NORAD_CAT_ID":45156,"ELEMENT_SET_NO":999,"REV_AT_EPOCH":29116,"BSTAR":-0.001506388,"MEAN_MOTION_DOT":-5.13e-6,"MEAN_MOTION_DDOT":0},{"OBJECT_NAME":"ONEWEB-0053","OBJECT_ID":"2020-008AC","EPOCH":"2026-02-09T03:34:36.875424","MEAN_MOTION":13.10369702,"ECCENTRICITY":0.00019664,"INCLINATION":87.8749,"RA_OF_ASC_NODE":61.7991,"ARG_OF_PERICENTER":76.769,"MEAN_ANOMALY":283.3656,"EPHEMERIS_TYPE":0,"CLASSIFICATION_TYPE":"U","NORAD_CAT_ID":45157,"ELEMENT_SET_NO":999,"REV_AT_EPOCH":29114,"BSTAR":-0.0010940822,"MEAN_MOTION_DOT":-3.69e-6,"MEAN_MOTION_DDOT":0},{"OBJECT_NAME":"ONEWEB-0054","OBJECT_ID":"2020-008AD","EPOCH":"2026-02-09T02:34:52.283712","MEAN_MOTION":13.10375648,"ECCENTRICITY":0.00019556,"INCLINATION":87.8762,"RA_OF_ASC_NODE":61.7812,"ARG_OF_PERICENTER":92.526,"MEAN_ANOMALY":267.6091,"EPHEMERIS_TYPE":0,"CLASSIFICATION_TYPE":"U","NORAD_CAT_ID":45158,"ELEMENT_SET_NO":999,"REV_AT_EPOCH":29125,"BSTAR":0.00079760779,"MEAN_MOTION_DOT":2.91e-6,"MEAN_MOTION_DDOT":0},{"OBJECT_NAME":"ONEWEB-0056","OBJECT_ID":"2020-008AE","EPOCH":"2026-02-09T02:07:22.371168","MEAN_MOTION":13.10373963,"ECCENTRICITY":0.00020654,"INCLINATION":87.8759,"RA_OF_ASC_NODE":61.7851,"ARG_OF_PERICENTER":91.8479,"MEAN_ANOMALY":268.2885,"EPHEMERIS_TYPE":0,"CLASSIFICATION_TYPE":"U","NORAD_CAT_ID":45159,"ELEMENT_SET_NO":999,"REV_AT_EPOCH":29140,"BSTAR":-0.0014899372,"MEAN_MOTION_DOT":-5.07e-6,"MEAN_MOTION_DDOT":0}]
